     3.04           N: GNSS NAV DATA    M: Mixed            RINEX VERSION / TYPE
CONVBIN 2.4.3                           20250708 141144 UTC PGM / RUN BY / DATE 
format: u-blox UBX                                          COMMENT             
log: D:\My_GPsense_data\2025_7_8\bag_up_down_5times_25hz.ubxCOMMENT             
                                                            END OF HEADER       
S28 2025  7  8 13 31 44  .000000000000D+00  .000000000000D+00  .221566000000D+06
      .510848784000D+04  .518750000000D-04 -.375000000000D-07  .100000000000D+01
      .418575068800D+05 -.306250000000D-03  .500000000000D-07  .819200000000D+04
     -.141600000000D+02 -.676000000000D-03  .625000000000D-07  .000000000000D+00
G28 2025 07 08 14 00 00 -.630108639598D-03 -.284217094304D-11  .000000000000D+00
      .400000000000D+01  .803125000000D+01  .463840749400D-08  .174741683593D+01
      .508502125740D-06  .324500491843D-03  .599585473537D-05  .515362909317D+04
      .223200000000D+06 -.316649675369D-07 -.213190579901D+01 -.651925802231D-07
      .961289361058D+00  .265937500000D+03  .152916908940D+00 -.788104256277D-08
      .256082095419D-09  .100000000000D+01  .237400000000D+04  .000000000000D+00
      .200000000000D+01  .000000000000D+00 -.931322574615D-08  .260000000000D+03
      .221646000000D+06  .400000000000D+01
G31 2025 07 08 14 00 00 -.201019458473D-03  .136424205266D-11  .000000000000D+00
      .640000000000D+02  .940625000000D+01  .481591488790D-08  .600507980242D+00
      .704079866409D-06  .106089992914D-01  .586733222008D-05  .515368008041D+04
      .223200000000D+06 -.201165676117D-06 -.208025632783D+01  .132247805595D-06
      .954092879352D+00  .264468750000D+03  .836172849064D+00 -.809748014969D-08
      .168578450541D-09  .100000000000D+01  .237400000000D+04  .000000000000D+00
      .200000000000D+01  .000000000000D+00 -.135041773319D-07  .640000000000D+02
      .221646000000D+06  .400000000000D+01
G26 2025 07 08 14 00 00 -.265196431428D-03  .306954461848D-11  .000000000000D+00
      .150000000000D+02  .625000000000D-01  .533629370662D-08 -.885091507157D-01
      .128522515297D-06  .100782851223D-01  .720471143723D-05  .515359228325D+04
      .223200000000D+06  .856816768646D-07 -.114751588184D+01  .102445483208D-06
      .928686868221D+00  .224000000000D+03  .633717508009D+00 -.840285001243D-08
     -.427160650099D-09  .100000000000D+01  .237400000000D+04  .000000000000D+00
      .200000000000D+01  .000000000000D+00  .651925802231D-08  .150000000000D+02
      .221646000000D+06  .400000000000D+01
G32 2025 07 08 14 00 00 -.399653334171D-03  .118234311230D-10  .000000000000D+00
      .710000000000D+02 -.607812500000D+02  .415017287136D-08 -.120581559575D+01
     -.321306288242D-05  .858969590627D-02  .102967023849D-04  .515363163376D+04
      .223200000000D+06  .135973095894D-06  .312324586441D+01  .236555933952D-06
      .965796971538D+00  .185156250000D+03 -.205840706700D+01 -.767246244600D-08
      .275368613065D-09  .100000000000D+01  .237400000000D+04  .000000000000D+00
      .200000000000D+01  .000000000000D+00  .931322574615D-09  .710000000000D+02
      .221646000000D+06  .400000000000D+01
G25 2025 07 08 14 00 00  .481313560158D-03 -.147792889038D-11  .000000000000D+00
      .730000000000D+02  .875000000000D+01  .487056002123D-08  .763795922137D+00
      .277534127235D-06  .122702635126D-01  .778771936893D-05  .515360320282D+04
      .223200000000D+06 -.121071934700D-06 -.107744044982D+01  .316649675369D-07
      .947970069798D+00  .223437500000D+03  .112536911614D+01 -.820427031222D-08
     -.516092925913D-09  .100000000000D+01  .237400000000D+04  .000000000000D+00
      .200000000000D+01  .000000000000D+00  .558793544769D-08  .730000000000D+02
      .221646000000D+06  .400000000000D+01
G29 2025 07 08 14 00 00 -.485090538859D-03  .477484718431D-11  .000000000000D+00
      .640000000000D+02  .125781250000D+03  .422731894194D-08 -.201369156419D+01
      .649690628052D-05  .333528639749D-02  .839866697788D-05  .515363190842D+04
      .223200000000D+06 -.447034835815D-07  .660522756396D-01 -.149011611938D-07
      .965743124449D+00  .227343750000D+03  .272102047816D+01 -.779925344164D-08
      .853606984729D-10  .100000000000D+01  .237400000000D+04  .000000000000D+00
      .200000000000D+01  .000000000000D+00 -.977888703346D-08  .640000000000D+02
      .221646000000D+06  .400000000000D+01
G16 2025 07 08 14 00 00  .553796999156D-04  .829913915368D-11  .000000000000D+00
      .140000000000D+02  .148125000000D+02  .452054544172D-08 -.939593652498D+00
      .110082328320D-05  .144496582216D-01  .838190317154D-05  .515375960541D+04
      .223200000000D+06  .160187482834D-06 -.968926998876D+00  .236555933952D-06
      .959106295221D+00  .213906250000D+03  .886797663162D+00 -.793533053837D-08
     -.464305054455D-09  .100000000000D+01  .237400000000D+04  .000000000000D+00
      .200000000000D+01  .000000000000D+00 -.102445483208D-07  .140000000000D+02
      .221586000000D+06  .400000000000D+01
J07 2025 07 08 14 00 00  .125728547573D-07  .000000000000D+00  .000000000000D+00
      .210000000000D+02  .700250000000D+03  .000000000000D+00  .276290693732D+01
      .227633863688D-04  .295157893561D-03 -.688061118126D-05  .649335492897D+04
      .223200000000D+06  .961124897003D-06 -.249415677905D+01 -.680610537529D-05
      .625878778935D-03  .214281250000D+03 -.625488014498D+00  .123076555204D-08
      .000000000000D+00  .200000000000D+01  .237400000000D+04  .100000000000D+01
      .280000000000D+01  .100000000000D+01 -.558793544769D-08  .789000000000D+03
      .221616000000D+06  .100000000000D+01
J04 2025 07 08 14 00 00 -.175321474671D-05 -.113686837722D-12  .000000000000D+00
      .210000000000D+02 -.377000000000D+03  .107718772634D-08 -.151472136604D+01
     -.147037208080D-04  .754809080390D-01  .267531722784D-04  .649392737007D+04
      .223200000000D+06  .221654772758D-05  .280241133721D+01  .102445483208D-06
      .641988168036D+00 -.743375000000D+03 -.153866390172D+01 -.370729728096D-09
      .665742016542D-09  .200000000000D+01  .237400000000D+04  .100000000000D+01
      .280000000000D+01  .100000000000D+01 -.325962901115D-08  .789000000000D+03
      .221616000000D+06  .100000000000D+01
J02 2025 07 08 14 00 00 -.123679637909D-05 -.341060513165D-12  .000000000000D+00
      .210000000000D+02  .164375000000D+02  .185614874462D-08  .211397423133D+01
      .235624611378D-05  .755531165050D-01  .241342931986D-04  .649325813293D+04
      .223200000000D+06  .115483999252D-06 -.627016286979D+00  .257045030594D-06
      .697431840138D+00 -.624156250000D+03 -.158271690160D+01 -.137220001478D-08
     -.122290808189D-08  .200000000000D+01  .237400000000D+04  .100000000000D+01
      .280000000000D+01  .100000000000D+01  .139698386192D-08  .789000000000D+03
      .221616000000D+06  .100000000000D+01
R12 2025 07 08 13 45 00  .564139336348D-04  .909494701773D-12  .221550000000D+06
     -.261554980469D+04 -.679396629333D+00  .000000000000D+00  .000000000000D+00
      .183934580078D+05 -.229343223572D+01 -.931322574615D-09 -.100000000000D+01
      .175054375000D+05  .231284523010D+01 -.279396772385D-08  .000000000000D+00
R01 2025 07 08 13 45 00  .131446868181D-03  .909494701773D-12  .221550000000D+06
     -.137240883789D+05 -.366910934448D+00 -.186264514923D-08  .000000000000D+00
      .207350639648D+05  .714818000793D+00  .186264514923D-08  .100000000000D+01
      .572620605469D+04 -.346481609344D+01 -.372529029846D-08  .000000000000D+00
R02 2025 07 08 13 45 00 -.288654118776D-04  .909494701773D-12  .221550000000D+06
     -.233743896484D+04 -.172424983978D+01  .000000000000D+00  .000000000000D+00
      .160945078125D+05  .206403064728D+01 -.931322574615D-09 -.400000000000D+01
      .196699106445D+05 -.190373516083D+01 -.279396772385D-08  .000000000000D+00
R11 2025 07 08 13 45 00  .143349170685D-04 -.909494701773D-12  .221550000000D+06
     -.115467700195D+05 -.104032421112D+01  .186264514923D-08  .000000000000D+00
     -.283088867188D+03 -.293289089203D+01 -.931322574615D-09  .000000000000D+00
      .227563422852D+05 -.566658020020D+00 -.186264514923D-08  .000000000000D+00
R13 2025 07 08 13 45 00 -.605294480920D-04  .000000000000D+00  .221550000000D+06
      .666941064453D+04 -.396385192871D-01 -.186264514923D-08  .000000000000D+00
      .243225126953D+05 -.540015220642D+00 -.931322574615D-09 -.200000000000D+01
      .380844726563D+04  .351266384125D+01 -.186264514923D-08  .000000000000D+00
R08 2025 07 08 13 45 00 -.466499477625D-05  .000000000000D+00  .221550000000D+06
     -.185849570312D+05  .123954582214D+01 -.279396772385D-08  .000000000000D+00
      .124121704102D+05 -.115161228180D+01  .372529029846D-08  .600000000000D+01
     -.122052153320D+05 -.304704093933D+01 -.186264514923D-08  .000000000000D+00
C23 2025 07 08 13 00 00 -.690463231876D-03  .151363366285D-10  .000000000000D+00
      .100000000000D+01 -.225000000000D+01  .438053960991D-08  .219342851454D+01
     -.139698386192D-06  .357981771231D-03  .519491732121D-05  .528263835526D+04
      .219600000000D+06  .838190317154D-08 -.157468094630D+01 -.465661287308D-08
      .943620340363D+00  .247234375000D+03 -.118413698724D+01 -.689278711225D-08
     -.203937066226D-09  .000000000000D+00  .101800000000D+04  .000000000000D+00
      .200000000000D+01  .000000000000D+00  .226000000000D-07  .226000000000D-07
      .221550000000D+06  .100000000000D+01
C32 2025 07 08 13 00 00 -.947183463722D-03  .142108547152D-13  .000000000000D+00
      .100000000000D+01 -.159375000000D+03  .296405203609D-08  .255701123134D+01
     -.791624188423D-05  .525479554199D-03  .918982550502D-05  .528264047050D+04
      .219600000000D+06  .931322574615D-08  .261510377117D+01 -.162981450558D-07
      .983262182874D+00  .190562500000D+03 -.289497034256D+00 -.628169022904D-08
     -.867893294096D-10  .000000000000D+00  .101800000000D+04  .000000000000D+00
      .200000000000D+01  .000000000000D+00 -.690000000000D-08 -.690000000000D-08
      .221550000000D+06  .100000000000D+01
